[
    {
        "OBJECT_NAME": "BEIDOU-2 G7",
        "OBJECT_ID": "2016-037A",
        "EPOCH": "2025-04-13T21:56:16.218240",
        "MEAN_MOTION": 1.00278306,
        "ECCENTRICITY": 0.0010199,
        "INCLINATION": 1.6081,
        "RA_OF_ASC_NODE": 68.0229,
        "ARG_OF_PERICENTER": 336.3152,
        "MEAN_ANOMALY": 237.4769,
        "EPHEMERIS_TYPE": 0,
        "CLASSIFICATION_TYPE": "U",
        "NORAD_CAT_ID": 41586,
        "ELEMENT_SET_NO": 999,
        "REV_AT_EPOCH": 258,
        "BSTAR": 0,
        "MEAN_MOTION_DOT": -3.45e-06,
        "MEAN_MOTION_DDOT": 0
    },
    {
        "OBJECT_NAME": "BEIDOU-3 M1",
        "OBJECT_ID": "2017-069A",
        "EPOCH": "2025-04-12T11:53:18.222720",
        "MEAN_MOTION": 1.86231489,
        "ECCENTRICITY": 0.001248,
        "INCLINATION": 56.3159,
        "RA_OF_ASC_NODE": 77.3122,
        "ARG_OF_PERICENTER": 308.7933,
        "MEAN_ANOMALY": 51.0717,
        "EPHEMERIS_TYPE": 0,
        "CLASSIFICATION_TYPE": "U",
        "NORAD_CAT_ID": 43001,
        "ELEMENT_SET_NO": 999,
        "REV_AT_EPOCH": 5058,
        "BSTAR": 0,
        "MEAN_MOTION_DOT": -1.5e-07,
        "MEAN_MOTION_DDOT": 0
    },
    {
        "OBJECT_NAME": "BEIDOU-3 M2",
        "OBJECT_ID": "2017-069B",
        "EPOCH": "2025-04-13T12:10:11.610912",
        "MEAN_MOTION": 1.86230998,
        "ECCENTRICITY": 0.0010187,
        "INCLINATION": 56.3159,
        "RA_OF_ASC_NODE": 77.3147,
        "ARG_OF_PERICENTER": 328.6263,
        "MEAN_ANOMALY": 31.2866,
        "EPHEMERIS_TYPE": 0,
        "CLASSIFICATION_TYPE": "U",
        "NORAD_CAT_ID": 43002,
        "ELEMENT_SET_NO": 999,
        "REV_AT_EPOCH": 5059,
        "BSTAR": 0,
        "MEAN_MOTION_DOT": -1.6e-07,
        "MEAN_MOTION_DDOT": 0
    },
    {
        "OBJECT_NAME": "BEIDOU-3 M7",
        "OBJECT_ID": "2018-003A",
        "EPOCH": "2025-04-13T06:04:59.479680",
        "MEAN_MOTION": 1.86232646,
        "ECCENTRICITY": 0.0004981,
        "INCLINATION": 54.7028,
        "RA_OF_ASC_NODE": 317.263,
        "ARG_OF_PERICENTER": 70.7821,
        "MEAN_ANOMALY": 289.3053,
        "EPHEMERIS_TYPE": 0,
        "CLASSIFICATION_TYPE": "U",
        "NORAD_CAT_ID": 43107,
        "ELEMENT_SET_NO": 999,
        "REV_AT_EPOCH": 4934,
        "BSTAR": 0,
        "MEAN_MOTION_DOT": -6.9e-07,
        "MEAN_MOTION_DDOT": 0
    },
    {
        "OBJECT_NAME": "BEIDOU-3 M8",
        "OBJECT_ID": "2018-003B",
        "EPOCH": "2025-04-12T15:49:33.258144",
        "MEAN_MOTION": 1.86231099,
        "ECCENTRICITY": 0.0002616,
        "INCLINATION": 54.6964,
        "RA_OF_ASC_NODE": 317.2677,
        "ARG_OF_PERICENTER": 282.0534,
        "MEAN_ANOMALY": 77.952,
        "EPHEMERIS_TYPE": 0,
        "CLASSIFICATION_TYPE": "U",
        "NORAD_CAT_ID": 43108,
        "ELEMENT_SET_NO": 999,
        "REV_AT_EPOCH": 4934,
        "BSTAR": 0,
        "MEAN_MOTION_DOT": -7e-07,
        "MEAN_MOTION_DDOT": 0
    },
    {
        "OBJECT_NAME": "BEIDOU-3 M10",
        "OBJECT_ID": "2018-029B",
        "EPOCH": "2025-04-13T07:36:31.014432",
        "MEAN_MOTION": 1.86229237,
        "ECCENTRICITY": 0.0004841,
        "INCLINATION": 54.5749,
        "RA_OF_ASC_NODE": 314.9662,
        "ARG_OF_PERICENTER": 23.2762,
        "MEAN_ANOMALY": 336.7759,
        "EPHEMERIS_TYPE": 0,
        "CLASSIFICATION_TYPE": "U",
        "NORAD_CAT_ID": 43246,
        "ELEMENT_SET_NO": 999,
        "REV_AT_EPOCH": 4787,
        "BSTAR": 0,
        "MEAN_MOTION_DOT": -6.7e-07,
        "MEAN_MOTION_DDOT": 0
    },
    {
        "OBJECT_NAME": "BEIDOU-2 IGSO-7",
        "OBJECT_ID": "2018-057A",
        "EPOCH": "2025-04-08T19:50:20.915808",
        "MEAN_MOTION": 1.00278306,
        "ECCENTRICITY": 0.0087417,
        "INCLINATION": 55.1567,
        "RA_OF_ASC_NODE": 166.823,
        "ARG_OF_PERICENTER": 235.7847,
        "MEAN_ANOMALY": 205.5705,
        "EPHEMERIS_TYPE": 0,
        "CLASSIFICATION_TYPE": "U",
        "NORAD_CAT_ID": 43539,
        "ELEMENT_SET_NO": 999,
        "REV_AT_EPOCH": 2477,
        "BSTAR": 0,
        "MEAN_MOTION_DOT": -1.34e-06,
        "MEAN_MOTION_DDOT": 0
    },
    {
        "OBJECT_NAME": "BEIDOU-3 M5",
        "OBJECT_ID": "2018-062A",
        "EPOCH": "2025-04-12T11:14:39.492096",
        "MEAN_MOTION": 1.86228864,
        "ECCENTRICITY": 0.000328,
        "INCLINATION": 54.1026,
        "RA_OF_ASC_NODE": 196.9488,
        "ARG_OF_PERICENTER": 283.4688,
        "MEAN_ANOMALY": 76.5232,
        "EPHEMERIS_TYPE": 0,
        "CLASSIFICATION_TYPE": "U",
        "NORAD_CAT_ID": 43581,
        "ELEMENT_SET_NO": 999,
        "REV_AT_EPOCH": 4561,
        "BSTAR": 0,
        "MEAN_MOTION_DOT": 5e-08,
        "MEAN_MOTION_DDOT": 0
    },
    {
        "OBJECT_NAME": "BEIDOU-3 M6",
        "OBJECT_ID": "2018-062B",
        "EPOCH": "2025-04-12T20:52:32.479968",
        "MEAN_MOTION": 1.86229605,
        "ECCENTRICITY": 0.0004877,
        "INCLINATION": 54.1025,
        "RA_OF_ASC_NODE": 196.9244,
        "ARG_OF_PERICENTER": 29.0411,
        "MEAN_ANOMALY": 331.0176,
        "EPHEMERIS_TYPE": 0,
        "CLASSIFICATION_TYPE": "U",
        "NORAD_CAT_ID": 43582,
        "ELEMENT_SET_NO": 999,
        "REV_AT_EPOCH": 4562,
        "BSTAR": 0,
        "MEAN_MOTION_DOT": 1e-07,
        "MEAN_MOTION_DDOT": 0
    },
    {
        "OBJECT_NAME": "BEIDOU-3 M12",
        "OBJECT_ID": "2018-067A",
        "EPOCH": "2025-04-12T19:19:15.143232",
        "MEAN_MOTION": 1.8622798,
        "ECCENTRICITY": 0.0007473,
        "INCLINATION": 54.1952,
        "RA_OF_ASC_NODE": 195.6355,
        "ARG_OF_PERICENTER": 30.9892,
        "MEAN_ANOMALY": 329.0889,
        "EPHEMERIS_TYPE": 0,
        "CLASSIFICATION_TYPE": "U",
        "NORAD_CAT_ID": 43602,
        "ELEMENT_SET_NO": 999,
        "REV_AT_EPOCH": 4510,
        "BSTAR": 0,
        "MEAN_MOTION_DOT": 1.1e-07,
        "MEAN_MOTION_DDOT": 0
    }
]