BEIDOU-2 G7 (C03)       
1 41586U 16037A   25103.91407660 -.00000345  00000+0  00000+0 0  9996
2 41586   1.6081  68.0229 0010199 336.3152 237.4769  1.00278306  2582
BEIDOU-3 M1 (C19)       
1 43001U 17069A   25102.49534980 -.00000015  00000+0  00000+0 0  9998
2 43001  56.3159  77.3122 0012480 308.7933  51.0717  1.86231489 50580
BEIDOU-3 M2 (C20)       
1 43002U 17069B   25103.50707883 -.00000016  00000+0  00000+0 0  9997
2 43002  56.3159  77.3147 0010187 328.6263  31.2866  1.86230998 50597
BEIDOU-3 M7 (C27)       
1 43107U 18003A   25103.25346620 -.00000069  00000+0  00000+0 0  9990
2 43107  54.7028 317.2630 0004981  70.7821 289.3053  1.86232646 49340
BEIDOU-3 M8 (C28)       
1 43108U 18003B   25102.65941271 -.00000070  00000+0  00000+0 0  9999
2 43108  54.6964 317.2677 0002616 282.0534  77.9520  1.86231099 49343
BEIDOU-3 M10 (C30)      
1 43246U 18029B   25103.31702563 -.00000067  00000+0  00000+0 0  9999
2 43246  54.5749 314.9662 0004841  23.2762 336.7759  1.86229237 47871
BEIDOU-2 IGSO-7 (C16)   
1 43539U 18057A   25098.82663097 -.00000134  00000+0  00000+0 0  9997
2 43539  55.1567 166.8230 0087417 235.7847 205.5705  1.00278306 24775
BEIDOU-3 M5 (C23)       
1 43581U 18062A   25102.46851264  .00000005  00000+0  00000+0 0  9997
2 43581  54.1026 196.9488 0003280 283.4688  76.5232  1.86228864 45614
BEIDOU-3 M6 (C24)       
1 43582U 18062B   25102.86982037  .00000010  00000+0  00000+0 0  9991
2 43582  54.1025 196.9244 0004877  29.0411 331.0176  1.86229605 45626
BEIDOU-3 M12 (C26)      
1 43602U 18067A   25102.80503638  .00000011  00000+0  00000+0 0  9990
2 43602  54.1952 195.6355 0007473  30.9892 329.0889  1.86227980 45101
